ONEWEB-0199             
1 48234U 21031AA  24127.88382674 -.00000030  00000+0 -11664-3 0  9995
2 48234  87.8946  83.1615 0002143  81.5668 278.5705 13.14502746146933
ONEWEB-0203             
1 48235U 21031AB  24128.40713483  .00000300  00000+0  77380-3 0  9996
2 48235  87.8943  83.0585 0001969  98.3356 261.7997 13.14503726147017
ONEWEB-0197             
1 48236U 21031AC  24127.92584946  .00000047  00000+0  93066-4 0  9991
2 48236  87.8943  83.1626 0001843  72.4506 287.6825 13.14504273146863
ONEWEB-0194             
1 48237U 21031AD  24128.43725442 -.00000192  00000+0 -55170-3 0  9993
2 48237  87.8944  83.0532 0001846  90.5861 269.5480 13.14503894147100
ONEWEB-0193             
1 48238U 21031AE  24127.92029688 -.00000053  00000+0 -17703-3 0  9992
2 48238  87.8943  83.1646 0002142  87.2795 272.8580 13.14502902146988
ONEWEB-0191             
1 48239U 21031AF  24127.93140223  .00000197  00000+0  49783-3 0  9993
2 48239  87.8940  83.1472 0002072  85.5393 274.5974 13.14504624146844
ONEWEB-0195             
1 48240U 21031AG  24128.36511177 -.00000129  00000+0 -38358-3 0  9996
2 48240  87.8940  83.0598 0002504  85.1019 275.0396 13.14503413146888
ONEWEB-0201             
1 48241U 21031AH  24127.89729035 -.00000427  00000+0 -11856-2 0  9992
2 48241  87.8943  83.1859 0002165  82.2043 277.9332 13.14501549147050
